{
  "type": "FeatureCollection",
  "features": [
    {
      "type": "Feature",
      "properties": {
        "norad_id": 35670,
        "name": "COSMOS 2251 DEB",
        "group": "cosmos-2251-debris",
        "lat": 59.517989304915105,
        "lon": -166.73087151254248,
        "alt_km": 590.2160443271769,
        "timestamp": "2025-12-23T11:34:48.556846+00:00",
        "meta_object_name": "COSMOS 2251 DEB",
        "meta_object_id": "1993-036APM",
        "meta_epoch": "2025-12-22T20:36:05.670144",
        "meta_mean_motion": 14.94150162,
        "meta_eccentricity": 0.0038413,
        "meta_inclination": 73.8936,
        "meta_ra_of_asc_node": 43.936,
        "meta_arg_of_pericenter": 2.2242,
        "meta_mean_anomaly": 357.9104,
        "meta_ephemeris_type": 0,
        "meta_classification_type": "U",
        "meta_norad_cat_id": 35670,
        "meta_element_set_no": 999,
        "meta_rev_at_epoch": 87878,
        "meta_bstar": 0.0012423,
        "meta_mean_motion_dot": 0.00013477,
        "meta_mean_motion_ddot": 0,
        "tle_line1": "1 35670U 93036APM 25356.85839896  .00013477  00000+0  12423-2 0  9994",
        "tle_line2": "2 35670  73.8936  43.9360 0038413   2.2242 357.9104 14.94150162878785"
      },
      "geometry": {
        "type": "Point",
        "coordinates": [
          -166.73087151254248,
          59.517989304915105
        ]
      }
    },
    {
      "type": "Feature",
      "properties": {
        "norad_id": 35671,
        "name": "COSMOS 2251 DEB",
        "group": "cosmos-2251-debris",
        "lat": -46.516766148657204,
        "lon": -103.23414460762719,
        "alt_km": 707.9819396887024,
        "timestamp": "2025-12-23T11:34:48.556855+00:00",
        "meta_object_name": "COSMOS 2251 DEB",
        "meta_object_id": "1993-036APN",
        "meta_epoch": "2025-12-17T12:02:51.877248",
        "meta_mean_motion": 14.48356669,
        "meta_eccentricity": 0.00414327,
        "meta_inclination": 74.0178,
        "meta_ra_of_asc_node": 70.3857,
        "meta_arg_of_pericenter": 243.6268,
        "meta_mean_anomaly": 134.9759,
        "meta_ephemeris_type": 0,
        "meta_classification_type": "U",
        "meta_norad_cat_id": 35671,
        "meta_element_set_no": 999,
        "meta_rev_at_epoch": 86832,
        "meta_bstar": 0.00018080216,
        "meta_mean_motion_dot": 6.55e-06,
        "meta_mean_motion_ddot": 0,
        "tle_line1": "1 35671U 93036APN 25351.50198932  .00000655  00000+0  18080-3 0  9991",
        "tle_line2": "2 35671  74.0178  70.3857 0041432 243.6268 134.9759 14.48356669868323"
      },
      "geometry": {
        "type": "Point",
        "coordinates": [
          -103.23414460762719,
          -46.516766148657204
        ]
      }
    },
    {
      "type": "Feature",
      "properties": {
        "norad_id": 35674,
        "name": "COSMOS 2251 DEB",
        "group": "cosmos-2251-debris",
        "lat": -25.262239665332295,
        "lon": -71.52805622249757,
        "alt_km": 648.6915107033337,
        "timestamp": "2025-12-23T11:34:48.556863+00:00",
        "meta_object_name": "COSMOS 2251 DEB",
        "meta_object_id": "1993-036APR",
        "meta_epoch": "2025-12-22T02:40:52.097376",
        "meta_mean_motion": 14.54343457,
        "meta_eccentricity": 0.009624,
        "meta_inclination": 74.0609,
        "meta_ra_of_asc_node": 298.81,
        "meta_arg_of_pericenter": 341.455,
        "meta_mean_anomaly": 18.3112,
        "meta_ephemeris_type": 0,
        "meta_classification_type": "U",
        "meta_norad_cat_id": 35674,
        "meta_element_set_no": 999,
        "meta_rev_at_epoch": 86247,
        "meta_bstar": 0.0018064295,
        "meta_mean_motion_dot": 8.139e-05,
        "meta_mean_motion_ddot": 0,
        "tle_line1": "1 35674U 93036APR 25356.11171409  .00008139  00000+0  18064-2 0  9992",
        "tle_line2": "2 35674  74.0609 298.8100 0096240 341.4550  18.3112 14.54343457862477"
      },
      "geometry": {
        "type": "Point",
        "coordinates": [
          -71.52805622249757,
          -25.262239665332295
        ]
      }
    },
    {
      "type": "Feature",
      "properties": {
        "norad_id": 35701,
        "name": "COSMOS 2251 DEB",
        "group": "cosmos-2251-debris",
        "lat": -37.84873142434722,
        "lon": -88.5585381679544,
        "alt_km": 1175.680406021609,
        "timestamp": "2025-12-23T11:34:48.556872+00:00",
        "meta_object_name": "COSMOS 2251 DEB",
        "meta_object_id": "1993-036APW",
        "meta_epoch": "2025-12-23T03:05:16.939392",
        "meta_mean_motion": 13.80906206,
        "meta_eccentricity": 0.0288749,
        "meta_inclination": 74.0066,
        "meta_ra_of_asc_node": 284.9129,
        "meta_arg_of_pericenter": 131.8115,
        "meta_mean_anomaly": 230.8064,
        "meta_ephemeris_type": 0,
        "meta_classification_type": "U",
        "meta_norad_cat_id": 35701,
        "meta_element_set_no": 999,
        "meta_rev_at_epoch": 62302,
        "meta_bstar": 0.0013475,
        "meta_mean_motion_dot": 1.927e-05,
        "meta_mean_motion_ddot": 0,
        "tle_line1": "1 35701U 93036APW 25357.12866828  .00001927  00000+0  13475-2 0  9990",
        "tle_line2": "2 35701  74.0066 284.9129 0288749 131.8115 230.8064 13.80906206623025"
      },
      "geometry": {
        "type": "Point",
        "coordinates": [
          -88.5585381679544,
          -37.84873142434722
        ]
      }
    },
    {
      "type": "Feature",
      "properties": {
        "norad_id": 35703,
        "name": "COSMOS 2251 DEB",
        "group": "cosmos-2251-debris",
        "lat": -65.2300156467701,
        "lon": -120.4101634704964,
        "alt_km": 646.3259630314251,
        "timestamp": "2025-12-23T11:34:48.556882+00:00",
        "meta_object_name": "COSMOS 2251 DEB",
        "meta_object_id": "1993-036APY",
        "meta_epoch": "2025-12-21T19:48:02.001024",
        "meta_mean_motion": 14.90447063,
        "meta_eccentricity": 0.00644399,
        "meta_inclination": 74.0415,
        "meta_ra_of_asc_node": 24.5791,
        "meta_arg_of_pericenter": 91.498,
        "meta_mean_anomaly": 269.3585,
        "meta_ephemeris_type": 0,
        "meta_classification_type": "U",
        "meta_norad_cat_id": 35703,
        "meta_element_set_no": 999,
        "meta_rev_at_epoch": 66751,
        "meta_bstar": 0.00048186559,
        "meta_mean_motion_dot": 4.852e-05,
        "meta_mean_motion_ddot": 0,
        "tle_line1": "1 35703U 93036APY 25355.82502316  .00004852  00000+0  48187-3 0  9995",
        "tle_line2": "2 35703  74.0415  24.5791 0064439  91.4980 269.3585 14.90447063667517"
      },
      "geometry": {
        "type": "Point",
        "coordinates": [
          -120.4101634704964,
          -65.2300156467701
        ]
      }
    },
    {
      "type": "Feature",
      "properties": {
        "norad_id": 35705,
        "name": "COSMOS 2251 DEB",
        "group": "cosmos-2251-debris",
        "lat": 54.14461457199896,
        "lon": 138.15886160499178,
        "alt_km": 624.101307136546,
        "timestamp": "2025-12-23T11:34:48.556892+00:00",
        "meta_object_name": "COSMOS 2251 DEB",
        "meta_object_id": "1993-036AQA",
        "meta_epoch": "2025-12-21T00:37:19.012800",
        "meta_mean_motion": 14.72474593,
        "meta_eccentricity": 0.00333276,
        "meta_inclination": 74.2752,
        "meta_ra_of_asc_node": 119.9236,
        "meta_arg_of_pericenter": 64.9174,
        "meta_mean_anomaly": 295.5452,
        "meta_ephemeris_type": 0,
        "meta_classification_type": "U",
        "meta_norad_cat_id": 35705,
        "meta_element_set_no": 999,
        "meta_rev_at_epoch": 86048,
        "meta_bstar": 0.0022061245,
        "meta_mean_motion_dot": 0.00014123,
        "meta_mean_motion_ddot": 0,
        "tle_line1": "1 35705U 93036AQA 25355.02591450  .00014123  00000+0  22061-2 0  9990",
        "tle_line2": "2 35705  74.2752 119.9236 0033327  64.9174 295.5452 14.72474593860483"
      },
      "geometry": {
        "type": "Point",
        "coordinates": [
          138.15886160499178,
          54.14461457199896
        ]
      }
    },
    {
      "type": "Feature",
      "properties": {
        "norad_id": 35706,
        "name": "COSMOS 2251 DEB",
        "group": "cosmos-2251-debris",
        "lat": 11.824050887841636,
        "lon": -138.40675910546184,
        "alt_km": 941.0534403804677,
        "timestamp": "2025-12-23T11:34:48.556901+00:00",
        "meta_object_name": "COSMOS 2251 DEB",
        "meta_object_id": "1993-036AQB",
        "meta_epoch": "2025-12-21T09:35:04.200288",
        "meta_mean_motion": 13.65940195,
        "meta_eccentricity": 0.03399329,
        "meta_inclination": 73.889,
        "meta_ra_of_asc_node": 48.5024,
        "meta_arg_of_pericenter": 96.6435,
        "meta_mean_anomaly": 267.3485,
        "meta_ephemeris_type": 0,
        "meta_classification_type": "U",
        "meta_norad_cat_id": 35706,
        "meta_element_set_no": 999,
        "meta_rev_at_epoch": 62180,
        "meta_bstar": 0.00062720687,
        "meta_mean_motion_dot": 7.46e-06,
        "meta_mean_motion_ddot": 0,
        "tle_line1": "1 35706U 93036AQB 25355.39935417  .00000746  00000+0  62721-3 0  9990",
        "tle_line2": "2 35706  73.8890  48.5024 0339932  96.6435 267.3485 13.65940195621808"
      },
      "geometry": {
        "type": "Point",
        "coordinates": [
          -138.40675910546184,
          11.824050887841636
        ]
      }
    }
  ]
}